{"type": "FeatureCollection", "features": [ {"type": "Feature", "properties": {"norad_id": 66052, "name": "HRC MONOBLOCK CAMERA", "group": "stations", "lat": -0.45294950220970354, "lon": 103.74869063524818, "alt_km": 405.3028209948143, "timestamp": "2025-12-20T05:41:48.772426+00:00", "meta": {"OBJECT_NAME": "HRC MONOBLOCK CAMERA", "OBJECT_ID": "1998-067XR", "EPOCH": "2025-12-19T20:26:34.281888", "MEAN_MOTION": 15.54619517, "ECCENTRICITY": 0.000251, "INCLINATION": 51.6304, "RA_OF_ASC_NODE": 106.0324, "ARG_OF_PERICENTER": 217.8733, "MEAN_ANOMALY": 142.2081, "EPHEMERIS_TYPE": 0, "CLASSIFICATION_TYPE": "U", "NORAD_CAT_ID": 66052, "ELEMENT_SET_NO": 999, "REV_AT_EPOCH": 994, "BSTAR": 0.00041251054, "MEAN_MOTION_DOT": 0.00027417, "MEAN_MOTION_DDOT": 0}, "tle": {"line1": "1 66052U 98067XR  25353.85178567  .00027417  00000+0  41251-3 0  9990", "line2": "2 66052  51.6304 106.0324 0002510 217.8733 142.2081 15.54619517  9949"}}, "geometry": {"type": "Point", "coordinates": [103.74869063524818, -0.45294950220970354]}}, {"type": "Feature", "properties": {"norad_id": 66174, "name": "HTV-X1", "group": "stations", "lat": 41.02625588890518, "lon": -118.22865340153523, "alt_km": 414.0084272136228, "timestamp": "2025-12-20T05:41:48.772436+00:00", "meta": {"OBJECT_NAME": "HTV-X1", "OBJECT_ID": "2025-241A", "EPOCH": "2025-12-19T18:20:02.855616", "MEAN_MOTION": 15.49672026, "ECCENTRICITY": 0.00031868, "INCLINATION": 51.6318, "RA_OF_ASC_NODE": 107.6945, "ARG_OF_PERICENTER": 273.0117, "MEAN_ANOMALY": 87.0507, "EPHEMERIS_TYPE": 0, "CLASSIFICATION_TYPE": "U", "NORAD_CAT_ID": 66174, "ELEMENT_SET_NO": 999, "REV_AT_EPOCH": 51, "BSTAR": 0.0001262585, "MEAN_MOTION_DOT": 6.675e-05, "MEAN_MOTION_DDOT": 0}, "tle": {"line1": "1 66174U 25241A   25353.76392194  .00006675  00000+0  12626-3 0  9990", "line2": "2 66174  51.6318 107.6945 0003186 273.0117  87.0507 15.49672026   516"}}, "geometry": {"type": "Point", "coordinates": [-118.22865340153523, 41.02625588890518]}}, {"type": "Feature", "properties": {"norad_id": 66515, "name": "SZ-21 MODULE", "group": "stations", "lat": 10.831060298798654, "lon": 137.78636607980414, "alt_km": 380.4049186858574, "timestamp": "2025-12-20T05:41:48.772448+00:00", "meta": {"OBJECT_NAME": "SZ-21 MODULE", "OBJECT_ID": "2025-246C", "EPOCH": "2025-12-19T05:59:43.928736", "MEAN_MOTION": 15.62811821, "ECCENTRICITY": 0.0005734, "INCLINATION": 41.4773, "RA_OF_ASC_NODE": 336.3242, "ARG_OF_PERICENTER": 295.0263, "MEAN_ANOMALY": 64.9981, "EPHEMERIS_TYPE": 0, "CLASSIFICATION_TYPE": "U", "NORAD_CAT_ID": 66515, "ELEMENT_SET_NO": 999, "REV_AT_EPOCH": 546, "BSTAR": 0.00023433, "MEAN_MOTION_DOT": 0.00021457, "MEAN_MOTION_DDOT": 0}, "tle": {"line1": "1 66515U 25246C   25353.24981399  .00021457  00000+0  23433-3 0  9991", "line2": "2 66515  41.4773 336.3242 0005734 295.0263  64.9981 15.62811821  5467"}}, "geometry": {"type": "Point", "coordinates": [137.78636607980414, 10.831060298798654]}}, {"type": "Feature", "properties": {"norad_id": 66645, "name": "SHENZHOU-22", "group": "stations", "lat": 9.904716390720637, "lon": 139.7743592813576, "alt_km": 385.3723643638614, "timestamp": "2025-12-20T05:41:48.772459+00:00", "meta": {"OBJECT_NAME": "SHENZHOU-22", "OBJECT_ID": "2025-272A", "EPOCH": "2025-12-19T22:50:46.623264", "MEAN_MOTION": 15.5948412, "ECCENTRICITY": 0.00077419, "INCLINATION": 41.4684, "RA_OF_ASC_NODE": 332.9127, "ARG_OF_PERICENTER": 94.7688, "MEAN_ANOMALY": 265.4034, "EPHEMERIS_TYPE": 0, "CLASSIFICATION_TYPE": "U", "NORAD_CAT_ID": 66645, "ELEMENT_SET_NO": 999, "REV_AT_EPOCH": 26357, "BSTAR": 0.0002198914, "MEAN_MOTION_DOT": 0.00017657, "MEAN_MOTION_DDOT": 0}, "tle": {"line1": "1 66645U 25272A   25353.95192851  .00017657  00000+0  21989-3 0  9990", "line2": "2 66645  41.4684 332.9127 0007741  94.7688 265.4034 15.59484120263570"}}, "geometry": {"type": "Point", "coordinates": [139.7743592813576, 9.904716390720637]}}, {"type": "Feature", "properties": {"norad_id": 66664, "name": "SOYUZ-MS 28", "group": "stations", "lat": 41.02625471387495, "lon": -118.22865114552486, "alt_km": 414.00842735799597, "timestamp": "2025-12-20T05:41:48.772468+00:00", "meta": {"OBJECT_NAME": "SOYUZ-MS 28", "OBJECT_ID": "2025-275A", "EPOCH": "2025-12-19T18:20:02.855616", "MEAN_MOTION": 15.49672026, "ECCENTRICITY": 0.00031868, "INCLINATION": 51.6318, "RA_OF_ASC_NODE": 107.6945, "ARG_OF_PERICENTER": 273.0117, "MEAN_ANOMALY": 87.0507, "EPHEMERIS_TYPE": 0, "CLASSIFICATION_TYPE": "U", "NORAD_CAT_ID": 66664, "ELEMENT_SET_NO": 999, "REV_AT_EPOCH": 128, "BSTAR": 0.0001262585, "MEAN_MOTION_DOT": 6.675e-05, "MEAN_MOTION_DDOT": 0}, "tle": {"line1": "1 66664U 25275A   25353.76392194  .00006675  00000+0  12626-3 0  9991", "line2": "2 66664  51.6318 107.6945 0003186 273.0117  87.0507 15.49672026  1285"}}, "geometry": {"type": "Point", "coordinates": [-118.22865114552486, 41.02625471387495]}}, {"type": "Feature", "properties": {"norad_id": 66906, "name": "1998-067XS", "group": "stations", "lat": -3.0215299763827965, "lon": -72.3795672347507, "alt_km": 413.95107123453727, "timestamp": "2025-12-20T05:41:48.772478+00:00", "meta": {"OBJECT_NAME": "1998-067XS", "OBJECT_ID": "1998-067XS", "EPOCH": "2025-12-19T19:37:45.032448", "MEAN_MOTION": 15.50933488, "ECCENTRICITY": 0.00029661, "INCLINATION": 51.6311, "RA_OF_ASC_NODE": 107.3061, "ARG_OF_PERICENTER": 238.2809, "MEAN_ANOMALY": 121.7891, "EPHEMERIS_TYPE": 0, "CLASSIFICATION_TYPE": "U", "NORAD_CAT_ID": 66906, "ELEMENT_SET_NO": 999, "REV_AT_EPOCH": 271, "BSTAR": 0.00034986922, "MEAN_MOTION_DOT": 0.00020233, "MEAN_MOTION_DDOT": 0}, "tle": {"line1": "1 66906U 98067XS  25353.81788232  .00020233  00000+0  34987-3 0  9997", "line2": "2 66906  51.6311 107.3061 0002966 238.2809 121.7891 15.50933488  2714"}}, "geometry": {"type": "Point", "coordinates": [-72.3795672347507, -3.0215299763827965]}}, {"type": "Feature", "properties": {"norad_id": 66907, "name": "1998-067XT", "group": "stations", "lat": -36.92876786405793, "lon": -38.32693708768353, "alt_km": 411.8781926922111, "timestamp": "2025-12-20T05:41:48.772488+00:00", "meta": {"OBJECT_NAME": "1998-067XT", "OBJECT_ID": "1998-067XT", "EPOCH": "2025-12-19T11:42:50.767776", "MEAN_MOTION": 15.52255247, "ECCENTRICITY": 0.0003998, "INCLINATION": 51.6306, "RA_OF_ASC_NODE": 108.8528, "ARG_OF_PERICENTER": 265.7173, "MEAN_ANOMALY": 94.336, "EPHEMERIS_TYPE": 0, "CLASSIFICATION_TYPE": "U", "NORAD_CAT_ID": 66907, "ELEMENT_SET_NO": 999, "REV_AT_EPOCH": 266, "BSTAR": 0.00077339, "MEAN_MOTION_DOT": 0.00047666, "MEAN_MOTION_DDOT": 0}, "tle": {"line1": "1 66907U 98067XT  25353.48808759  .00047666  00000+0  77339-3 0  9995", "line2": "2 66907  51.6306 108.8528 0003998 265.7173  94.3360 15.52255247  2660"}}, "geometry": {"type": "Point", "coordinates": [-38.32693708768353, -36.92876786405793]}}, {"type": "Feature", "properties": {"norad_id": 66908, "name": "1998-067XU", "group": "stations", "lat": -39.6101270312099, "lon": -33.91464281754791, "alt_km": 411.509657272778, "timestamp": "2025-12-20T05:41:48.772498+00:00", "meta": {"OBJECT_NAME": "1998-067XU", "OBJECT_ID": "1998-067XU", "EPOCH": "2025-12-18T14:03:56.443680", "MEAN_MOTION": 15.52259493, "ECCENTRICITY": 0.00039838, "INCLINATION": 51.6306, "RA_OF_ASC_NODE": 113.3296, "ARG_OF_PERICENTER": 260.0245, "MEAN_ANOMALY": 100.0295, "EPHEMERIS_TYPE": 0, "CLASSIFICATION_TYPE": "U", "NORAD_CAT_ID": 66908, "ELEMENT_SET_NO": 999, "REV_AT_EPOCH": 252, "BSTAR": 0.00087908108, "MEAN_MOTION_DOT": 0.00054298, "MEAN_MOTION_DDOT": 0}, "tle": {"line1": "1 66908U 98067XU  25352.58606995  .00054298  00000+0  87908-3 0  9996", "line2": "2 66908  51.6306 113.3296 0003983 260.0245 100.0295 15.52259493  2520"}}, "geometry": {"type": "Point", "coordinates": [-33.91464281754791, -39.6101270312099]}}, {"type": "Feature", "properties": {"norad_id": 66909, "name": "SILVERSAT", "group": "stations", "lat": -42.73670234380011, "lon": -27.836061283250338, "alt_km": 411.2826240610648, "timestamp": "2025-12-20T05:41:48.772511+00:00", "meta": {"OBJECT_NAME": "SILVERSAT", "OBJECT_ID": "1998-067XV", "EPOCH": "2025-12-19T13:13:09.424128", "MEAN_MOTION": 15.5251652, "ECCENTRICITY": 0.0003839, "INCLINATION": 51.6306, "RA_OF_ASC_NODE": 108.5226, "ARG_OF_PERICENTER": 268.696, "MEAN_ANOMALY": 91.359, "EPHEMERIS_TYPE": 0, "CLASSIFICATION_TYPE": "U", "NORAD_CAT_ID": 66909, "ELEMENT_SET_NO": 999, "REV_AT_EPOCH": 267, "BSTAR": 0.00079912, "MEAN_MOTION_DOT": 0.00049748, "MEAN_MOTION_DDOT": 0}, "tle": {"line1": "1 66909U 98067XV  25353.55080352  .00049748  00000+0  79912-3 0  9998", "line2": "2 66909  51.6306 108.5226 0003839 268.6960  91.3590 15.52516520  2671"}}, "geometry": {"type": "Point", "coordinates": [-27.836061283250338, -42.73670234380011]}}, {"type": "Feature", "properties": {"norad_id": 66910, "name": "1998-067XW", "group": "stations", "lat": -47.430366171647286, "lon": -15.313757127826818, "alt_km": 410.7073470301584, "timestamp": "2025-12-20T05:41:48.772521+00:00", "meta": {"OBJECT_NAME": "1998-067XW", "OBJECT_ID": "1998-067XW", "EPOCH": "2025-12-19T13:10:35.176800", "MEAN_MOTION": 15.525263, "ECCENTRICITY": 0.0004382, "INCLINATION": 51.6305, "RA_OF_ASC_NODE": 108.5102, "ARG_OF_PERICENTER": 243.3936, "MEAN_ANOMALY": 116.6605, "EPHEMERIS_TYPE": 0, "CLASSIFICATION_TYPE": "U", "NORAD_CAT_ID": 66910, "ELEMENT_SET_NO": 999, "REV_AT_EPOCH": 267, "BSTAR": 0.00069409, "MEAN_MOTION_DOT": 0.0004313, "MEAN_MOTION_DDOT": 0}, "tle": {"line1": "1 66910U 98067XW  25353.54901825  .00043130  00000+0  69409-3 0  9995", "line2": "2 66910  51.6305 108.5102 0004382 243.3936 116.6605 15.52526300  2677"}}, "geometry": {"type": "Point", "coordinates": [-15.313757127826818, -47.430366171647286]}}]}